{
  "type": "FeatureCollection",
  "features": [
    {
      "type": "Feature",
      "properties": {
        "norad_id": 35724,
        "name": "COSMOS 2251 DEB",
        "group": "cosmos-2251-debris",
        "lat": -39.0555290815528,
        "lon": 145.4077544161463,
        "alt_km": 721.6357133356969,
        "timestamp": "2025-12-07T20:38:14.460043+00:00",
        "meta_object_name": "COSMOS 2251 DEB",
        "meta_object_id": "1993-036AQV",
        "meta_epoch": "2025-11-30T08:09:18.426240",
        "meta_mean_motion": 14.58149733,
        "meta_eccentricity": 0.00590888,
        "meta_inclination": 74.0317,
        "meta_ra_of_asc_node": 326.2795,
        "meta_arg_of_pericenter": 123.6188,
        "meta_mean_anomaly": 237.0635,
        "meta_ephemeris_type": 0,
        "meta_classification_type": "U",
        "meta_norad_cat_id": 35724,
        "meta_element_set_no": 999,
        "meta_rev_at_epoch": 87348,
        "meta_bstar": 0.00024156118,
        "meta_mean_motion_dot": 1.11e-05,
        "meta_mean_motion_ddot": 0,
        "tle_line1": "1 35724U 93036AQV 25334.33979660  .00001110  00000+0  24156-3 0  9995",
        "tle_line2": "2 35724  74.0317 326.2795 0059088 123.6188 237.0635 14.58149733873489"
      },
      "geometry": {
        "type": "Point",
        "coordinates": [
          145.4077544161463,
          -39.0555290815528
        ]
      }
    },
    {
      "type": "Feature",
      "properties": {
        "norad_id": 35759,
        "name": "COSMOS 2251 DEB",
        "group": "cosmos-2251-debris",
        "lat": -38.241307644807804,
        "lon": -147.6011010841401,
        "alt_km": 634.3835273602954,
        "timestamp": "2025-12-07T20:38:14.460052+00:00",
        "meta_object_name": "COSMOS 2251 DEB",
        "meta_object_id": "1993-036ARD",
        "meta_epoch": "2025-12-02T09:41:30.767712",
        "meta_mean_motion": 14.648293,
        "meta_eccentricity": 0.00766899,
        "meta_inclination": 74.0385,
        "meta_ra_of_asc_node": 235.9215,
        "meta_arg_of_pericenter": 356.5872,
        "meta_mean_anomaly": 3.4761,
        "meta_ephemeris_type": 0,
        "meta_classification_type": "U",
        "meta_norad_cat_id": 35759,
        "meta_element_set_no": 999,
        "meta_rev_at_epoch": 65984,
        "meta_bstar": 0.00048578617,
        "meta_mean_motion_dot": 2.675e-05,
        "meta_mean_motion_ddot": 0,
        "tle_line1": "1 35759U 93036ARD 25336.40382833  .00002675  00000+0  48579-3 0  9995",
        "tle_line2": "2 35759  74.0385 235.9215 0076689 356.5872   3.4761 14.64829300659847"
      },
      "geometry": {
        "type": "Point",
        "coordinates": [
          -147.6011010841401,
          -38.241307644807804
        ]
      }
    },
    {
      "type": "Feature",
      "properties": {
        "norad_id": 35771,
        "name": "COSMOS 2251 DEB",
        "group": "cosmos-2251-debris",
        "lat": 25.350859238804166,
        "lon": 131.17301402322272,
        "alt_km": 886.2339711886598,
        "timestamp": "2025-12-07T20:38:14.460063+00:00",
        "meta_object_name": "COSMOS 2251 DEB",
        "meta_object_id": "1993-036ARR",
        "meta_epoch": "2025-12-01T22:51:30.244896",
        "meta_mean_motion": 14.12926683,
        "meta_eccentricity": 0.02319351,
        "meta_inclination": 74.1552,
        "meta_ra_of_asc_node": 329.2812,
        "meta_arg_of_pericenter": 270.0606,
        "meta_mean_anomaly": 87.396,
        "meta_ephemeris_type": 0,
        "meta_classification_type": "U",
        "meta_norad_cat_id": 35771,
        "meta_element_set_no": 999,
        "meta_rev_at_epoch": 82708,
        "meta_bstar": 0.0067662276,
        "meta_mean_motion_dot": 0.00016281,
        "meta_mean_motion_ddot": 0,
        "tle_line1": "1 35771U 93036ARR 25335.95243339  .00016281  00000+0  67662-2 0  9996",
        "tle_line2": "2 35771  74.1552 329.2812 0231935 270.0606  87.3960 14.12926683827080"
      },
      "geometry": {
        "type": "Point",
        "coordinates": [
          131.17301402322272,
          25.350859238804166
        ]
      }
    },
    {
      "type": "Feature",
      "properties": {
        "norad_id": 35773,
        "name": "COSMOS 2251 DEB",
        "group": "cosmos-2251-debris",
        "lat": -68.14792630767525,
        "lon": -144.1635908328448,
        "alt_km": 700.7922268995007,
        "timestamp": "2025-12-07T20:38:14.460073+00:00",
        "meta_object_name": "COSMOS 2251 DEB",
        "meta_object_id": "1993-036ART",
        "meta_epoch": "2025-12-06T10:38:01.749120",
        "meta_mean_motion": 14.62016712,
        "meta_eccentricity": 0.00458657,
        "meta_inclination": 74.0075,
        "meta_ra_of_asc_node": 352.8969,
        "meta_arg_of_pericenter": 154.7377,
        "meta_mean_anomaly": 205.6047,
        "meta_ephemeris_type": 0,
        "meta_classification_type": "U",
        "meta_norad_cat_id": 35773,
        "meta_element_set_no": 999,
        "meta_rev_at_epoch": 86747,
        "meta_bstar": 0.0010371973,
        "meta_mean_motion_dot": 5.254e-05,
        "meta_mean_motion_ddot": 0,
        "tle_line1": "1 35773U 93036ART 25340.44307580  .00005254  00000+0  10372-2 0  9991",
        "tle_line2": "2 35773  74.0075 352.8969 0045865 154.7377 205.6047 14.62016712867470"
      },
      "geometry": {
        "type": "Point",
        "coordinates": [
          -144.1635908328448,
          -68.14792630767525
        ]
      }
    },
    {
      "type": "Feature",
      "properties": {
        "norad_id": 35777,
        "name": "COSMOS 2251 DEB",
        "group": "cosmos-2251-debris",
        "lat": 18.00616877166912,
        "lon": -24.024301800593566,
        "alt_km": 1402.4409558225916,
        "timestamp": "2025-12-07T20:38:14.460083+00:00",
        "meta_object_name": "COSMOS 2251 DEB",
        "meta_object_id": "1993-036ARX",
        "meta_epoch": "2025-12-02T10:40:29.464608",
        "meta_mean_motion": 13.41287955,
        "meta_eccentricity": 0.04528031,
        "meta_inclination": 73.7709,
        "meta_ra_of_asc_node": 339.1914,
        "meta_arg_of_pericenter": 235.501,
        "meta_mean_anomaly": 282.7283,
        "meta_ephemeris_type": 0,
        "meta_classification_type": "U",
        "meta_norad_cat_id": 35777,
        "meta_element_set_no": 999,
        "meta_rev_at_epoch": 79546,
        "meta_bstar": 0.00081766672,
        "meta_mean_motion_dot": 8.07e-06,
        "meta_mean_motion_ddot": 0,
        "tle_line1": "1 35777U 93036ARX 25336.44478547  .00000807  00000+0  81767-3 0  9998",
        "tle_line2": "2 35777  73.7709 339.1914 0452803 235.5010 282.7283 13.41287955795460"
      },
      "geometry": {
        "type": "Point",
        "coordinates": [
          -24.024301800593566,
          18.00616877166912
        ]
      }
    },
    {
      "type": "Feature",
      "properties": {
        "norad_id": 35784,
        "name": "COSMOS 2251 DEB",
        "group": "cosmos-2251-debris",
        "lat": 55.800624002013066,
        "lon": -106.03925348775186,
        "alt_km": 729.8581429543947,
        "timestamp": "2025-12-07T20:38:14.460093+00:00",
        "meta_object_name": "COSMOS 2251 DEB",
        "meta_object_id": "1993-036ASE",
        "meta_epoch": "2025-12-05T15:05:34.155456",
        "meta_mean_motion": 14.50011306,
        "meta_eccentricity": 0.00419479,
        "meta_inclination": 74.0372,
        "meta_ra_of_asc_node": 103.0578,
        "meta_arg_of_pericenter": 235.0897,
        "meta_mean_anomaly": 124.6319,
        "meta_ephemeris_type": 0,
        "meta_classification_type": "U",
        "meta_norad_cat_id": 35784,
        "meta_element_set_no": 999,
        "meta_rev_at_epoch": 65603,
        "meta_bstar": 0.00065783499,
        "meta_mean_motion_dot": 2.549e-05,
        "meta_mean_motion_ddot": 0,
        "tle_line1": "1 35784U 93036ASE 25339.62886754  .00002549  00000+0  65783-3 0  9997",
        "tle_line2": "2 35784  74.0372 103.0578 0041947 235.0897 124.6319 14.50011306656032"
      },
      "geometry": {
        "type": "Point",
        "coordinates": [
          -106.03925348775186,
          55.800624002013066
        ]
      }
    },
    {
      "type": "Feature",
      "properties": {
        "norad_id": 35786,
        "name": "COSMOS 2251 DEB",
        "group": "cosmos-2251-debris",
        "lat": 60.009671321042156,
        "lon": -156.59344365412827,
        "alt_km": 658.1970287836393,
        "timestamp": "2025-12-07T20:38:14.460102+00:00",
        "meta_object_name": "COSMOS 2251 DEB",
        "meta_object_id": "1993-036ASG",
        "meta_epoch": "2025-12-06T11:21:25.648992",
        "meta_mean_motion": 14.66117406,
        "meta_eccentricity": 0.00346261,
        "meta_inclination": 74.0149,
        "meta_ra_of_asc_node": 55.8624,
        "meta_arg_of_pericenter": 187.1836,
        "meta_mean_anomaly": 172.8842,
        "meta_ephemeris_type": 0,
        "meta_classification_type": "U",
        "meta_norad_cat_id": 35786,
        "meta_element_set_no": 999,
        "meta_rev_at_epoch": 73316,
        "meta_bstar": 0.0020784465,
        "meta_mean_motion_dot": 0.0001151,
        "meta_mean_motion_ddot": 0,
        "tle_line1": "1 35786U 93036ASG 25340.47321353  .00011510  00000+0  20784-2 0  9992",
        "tle_line2": "2 35786  74.0149  55.8624 0034626 187.1836 172.8842 14.66117406733169"
      },
      "geometry": {
        "type": "Point",
        "coordinates": [
          -156.59344365412827,
          60.009671321042156
        ]
      }
    }
  ]
}